{
    "links": {
        "self": "http://www.neowsapp.com/rest/v1/neo/3838185?api_key=iIulBulltgU6a56xZRHN4H3l9WmuAYTsLGpBGhQ2"
    },
    "id": "3838185",
    "neo_reference_id": "3838185",
    "name": "(2019 CM2)",
    "designation": "2019 CM2",
    "nasa_jpl_url": "http://ssd.jpl.nasa.gov/sbdb.cgi?sstr=3838185",
    "absolute_magnitude_h": 21.1,
    "estimated_diameter": {
        "kilometers": {
            "estimated_diameter_min": 0.160160338,
            "estimated_diameter_max": 0.358129403
        },
        "meters": {
            "estimated_diameter_min": 160.1603379786,
            "estimated_diameter_max": 358.1294030194
        },
        "miles": {
            "estimated_diameter_min": 0.0995189894,
            "estimated_diameter_max": 0.2225312253
        },
        "feet": {
            "estimated_diameter_min": 525.4604432536,
            "estimated_diameter_max": 1174.9652706022
        }
    },
    "is_potentially_hazardous_asteroid": false,
    "close_approach_data": [
        {
            "close_approach_date": "2019-02-06",
            "close_approach_date_full": "2019-Feb-06 10:36",
            "epoch_date_close_approach": 1549449360000,
            "relative_velocity": {
                "kilometers_per_second": "33.9201433229",
                "kilometers_per_hour": "122112.5159623982",
                "miles_per_hour": "75875.9685989691"
            },
            "miss_distance": {
                "astronomical": "0.2053653638",
                "lunar": "79.8871265182",
                "kilometers": "30722220.996255106",
                "miles": "19089902.9165122228"
            },
            "orbiting_body": "Earth"
        }
    ],
    "orbital_data": {
        "orbit_id": "3",
        "orbit_determination_date": "2019-02-14 07:18:25",
        "first_observation_date": "2019-02-05",
        "last_observation_date": "2019-02-12",
        "data_arc_in_days": 7,
        "observations_used": 49,
        "orbit_uncertainty": "9",
        "minimum_orbit_intersection": ".077947",
        "jupiter_tisserand_invariant": "4.112",
        "epoch_osculation": "2458521.5",
        "eccentricity": ".2467394172842068",
        "semi_major_axis": "1.413753988628345",
        "inclination": "64.70536291993879",
        "ascending_node_longitude": "143.2985057733142",
        "orbital_period": "613.9870223422494",
        "perihelion_distance": "1.064925153290964",
        "perihelion_argument": "2.384821651125646",
        "aphelion_distance": "1.762582823965726",
        "perihelion_time": "2458516.989524944641",
        "mean_anomaly": "2.644634106002514",
        "mean_motion": ".5863316110927966",
        "equinox": "J2000",
        "orbit_class": {
            "orbit_class_type": "AMO",
            "orbit_class_description": "Near-Earth asteroid orbits similar to that of 1221 Amor",
            "orbit_class_range": "1.017 AU < q (perihelion) < 1.3 AU"
        }
    },
    "is_sentry_object": false
}